SEEDS II (CO-66)        
1 32791U 08021J   26068.92109284  .00023758  00000+0  84213-3 0  9995
2 32791  97.7519  62.3611 0001448 359.2618   0.8619 15.29097235972108
STARLINK-31607          
1 59394U 24062W   26068.82924367  .00003564  00000+0  13237-3 0  9993
2 59394  53.1600 254.9500 0000977  87.6383 272.4730 15.30206188109683
